{"type":"FeatureCollection","features":[{"type":"Feature","id":"way/132782108","properties":{"@id":"way/132782108","amenity":"cinema","building":"yes","name":"INOX Lido"},"geometry":{"type":"Polygon","coordinates":[[[77.6212324,12.9734616],[77.6211842,12.9729597],[77.6213934,12.9730277],[77.6214298,12.9734422],[77.6212324,12.9734616]]]}},{"type":"Feature","id":"way/124538650","properties":{"@id":"way/124538650","amenity":"cinema","building":"yes"},"geometry":{"type":"Polygon","coordinates":[[[77.6989868,12.9517769],[77.6990385,12.9519955],[77.6982686,12.9521573],[77.698219,12.9519282],[77.6989868,12.9517769]]]}},{"type":"Feature","id":"way/133116272","properties":{"@id":"way/133116272","amenity":"cinema","name":"Uma Theatre"},"geometry":{"type":"Polygon","coordinates":[[[77.5673391,12.9555407],[77.5667812,12.9555093],[77.5667973,12.9552166],[77.5673439,12.9552732],[77.5673391,12.9555407]]]}},{"type":"Feature","id":"way/133179621","properties":{"@id":"way/133179621","amenity":"cinema","building":"yes","name":"Srinivasa Theatre, SG palaya"},"geometry":{"type":"Polygon","coordinates":[[[77.6078241,12.9319413],[77.6073359,12.9319649],[77.6073413,12.9317793],[77.6073413,12.9317636],[77.6078295,12.9317427],[77.6078241,12.9319413]]]}},{"type":"Feature","id":"way/133488225","properties":{"@id":"way/133488225","amenity":"cinema","name":"Radhakrishna Theatre"},"geometry":{"type":"Polygon","coordinates":[[[77.5927716,13.0153353],[77.5927179,13.0151837],[77.5927716,13.015006],[77.5928627,13.0149903],[77.5929306,13.0152545],[77.5927716,13.0153353]]]}},{"type":"Feature","id":"way/133600677","properties":{"@id":"way/133600677","amenity":"cinema","building":"yes","name":"Nandini Theatre"},"geometry":{"type":"Polygon","coordinates":[[[77.5429308,13.0041084],[77.5428369,13.0040587],[77.5428052,13.0040437],[77.5430708,13.0037693],[77.543207,13.0038862],[77.5429308,13.0041084]]]}},{"type":"Feature","id":"way/134042991","properties":{"@id":"way/134042991","amenity":"cinema","name":"Lakshmi"},"geometry":{"type":"Polygon","coordinates":[[[77.6076955,12.9249638],[77.6078134,12.9253538],[77.607363,12.9254422],[77.6072547,12.9250132],[77.6076955,12.9249638]]]}},{"type":"Feature","id":"way/146203912","properties":{"@id":"way/146203912","amenity":"cinema","building":"yes","name":"Rajeshwari Theatre"},"geometry":{"type":"Polygon","coordinates":[[[77.6608793,12.9587374],[77.6611156,12.9587178],[77.6611545,12.9591955],[77.6609182,12.9591902],[77.6608793,12.9587374]]]}},{"type":"Feature","id":"way/150582746","properties":{"@id":"way/150582746","amenity":"cinema","building":"yes","name":"PVR Cinemas"},"geometry":{"type":"Polygon","coordinates":[[[77.6953021,12.9975187],[77.6952584,12.9972001],[77.6958801,12.9971192],[77.6959316,12.9974948],[77.6958929,12.9974998],[77.6954545,12.9975568],[77.6954467,12.9974999],[77.6953021,12.9975187]]]}},{"type":"Feature","id":"way/154340359","properties":{"@id":"way/154340359","amenity":"cinema","building":"yes","name":"Apsara"},"geometry":{"type":"Polygon","coordinates":[[[77.5766891,12.9633562],[77.576555,12.9631],[77.5766604,12.9630519],[77.5766998,12.96287],[77.5768749,12.9628951],[77.5768875,12.96333],[77.5766891,12.9633562]]]}},{"type":"Feature","id":"way/163244601","properties":{"@id":"way/163244601","amenity":"cinema","name":"Vinayaka Theatre"},"geometry":{"type":"Polygon","coordinates":[[[77.6993349,12.9559084],[77.6992543,12.9556157],[77.6997532,12.9554852],[77.6998338,12.9557778],[77.6993349,12.9559084]]]}},{"type":"Feature","id":"way/166750577","properties":{"@id":"way/166750577","amenity":"cinema","name":"Shiva Theatre"},"geometry":{"type":"Polygon","coordinates":[[[77.6176658,12.9433903],[77.6176177,12.943121],[77.6177951,12.9430909],[77.6178468,12.9433808],[77.6176658,12.9433903]]]}},{"type":"Feature","id":"way/169801367","properties":{"@id":"way/169801367","amenity":"cinema","name":"Veeresh Talkies"},"geometry":{"type":"Polygon","coordinates":[[[77.5457229,12.977348],[77.5455217,12.9767103],[77.5459058,12.9765893],[77.5460721,12.9771355],[77.5457229,12.977348]]]}},{"type":"Feature","id":"way/169817243","properties":{"@id":"way/169817243","amenity":"cinema"},"geometry":{"type":"Polygon","coordinates":[[[77.5540995,12.96424],[77.5539926,12.9638342],[77.5542497,12.9637564],[77.554351,12.964168],[77.5540995,12.96424]]]}},{"type":"Feature","id":"way/182819015","properties":{"@id":"way/182819015","amenity":"cinema","building":"yes"},"geometry":{"type":"Polygon","coordinates":[[[77.5576776,12.9606015],[77.5576972,12.9604369],[77.5580504,12.9604682],[77.5580665,12.9605832],[77.5580539,12.9606407],[77.5580164,12.9607087],[77.5576776,12.9606015]]]}},{"type":"Feature","id":"way/182821802","properties":{"@id":"way/182821802","amenity":"cinema","name":"Kapali"},"geometry":{"type":"Polygon","coordinates":[[[77.5756634,12.978063],[77.5757358,12.9777808],[77.5758511,12.9778017],[77.5760684,12.9779193],[77.5760282,12.9780813],[77.5757921,12.9780918],[77.5756634,12.978063]]]}},{"type":"Feature","id":"way/182827815","properties":{"@id":"way/182827815","amenity":"cinema","building":"yes"},"geometry":{"type":"Polygon","coordinates":[[[77.6144519,12.9830825],[77.6143205,12.9827218],[77.6145726,12.9826512],[77.6146477,12.9830171],[77.6144519,12.9830825]]]}},{"type":"Feature","id":"way/184923393","properties":{"@id":"way/184923393","amenity":"cinema","name":"Vaibhav Theatre"},"geometry":{"type":"Polygon","coordinates":[[[77.5744762,13.0358881],[77.5746157,13.0354047],[77.5748705,13.0354857],[77.5750035,13.0355087],[77.5748544,13.0359273],[77.5746801,13.035943],[77.5744762,13.0358881]]]}},{"type":"Feature","id":"way/191035682","properties":{"@id":"way/191035682","amenity":"cinema","name":"Sujata"},"geometry":{"type":"Polygon","coordinates":[[[77.5616501,12.9831006],[77.5616427,12.9828859],[77.5620444,12.9828314],[77.5620226,12.9829246],[77.5620122,12.98303],[77.5620444,12.9831294],[77.5616501,12.9831006]]]}},{"type":"Feature","id":"way/192043994","properties":{"@id":"way/192043994","amenity":"cinema","name":"Nataraja"},"geometry":{"type":"Polygon","coordinates":[[[77.5729234,12.9902149],[77.5728375,12.9897653],[77.5731272,12.9896608],[77.5731782,12.9898829],[77.5731969,12.9901835],[77.5729234,12.9902149]]]}},{"type":"Feature","id":"way/192049202","properties":{"@id":"way/192049202","amenity":"cinema","building":"yes","name":"Cauvery"},"geometry":{"type":"Polygon","coordinates":[[[77.5830781,13.0027571],[77.5830995,13.0026447],[77.5830647,13.0025192],[77.5834107,13.0024513],[77.5834509,13.0026133],[77.5834187,13.0027858],[77.5830781,13.0027571]]]}},{"type":"Feature","id":"way/215165642","properties":{"@id":"way/215165642","amenity":"cinema","name":"Veerabadreshwar Theater "},"geometry":{"type":"Polygon","coordinates":[[[77.5289404,12.9930428],[77.5293052,12.9929906],[77.5293241,12.9932253],[77.528935,12.993265],[77.5289404,12.9930428]]]}},{"type":"Feature","id":"way/249908374","properties":{"@id":"way/249908374","amenity":"cinema","building":"yes","name":"Gopal Theatre"},"geometry":{"type":"Polygon","coordinates":[[[77.5560973,13.017079],[77.5564628,13.0171806],[77.5564048,13.0173785],[77.5560394,13.017277],[77.5560973,13.017079]]]}},{"type":"Feature","id":"way/323810984","properties":{"@id":"way/323810984","amenity":"cinema","name":"Prasanna"},"geometry":{"type":"Polygon","coordinates":[[[77.5524681,12.9742004],[77.5520474,12.9745468],[77.551658,12.9741393],[77.551948,12.9739229],[77.5519872,12.973956],[77.5522042,12.9738134],[77.5524681,12.9742004]]]}},{"type":"Feature","id":"way/323852398","properties":{"@id":"way/323852398","addr:street":"Lalbagh Road","amenity":"cinema","name":"Urvashi"},"geometry":{"type":"Polygon","coordinates":[[[77.5856314,12.9556718],[77.5857984,12.9564887],[77.5853236,12.9564504],[77.5850846,12.9558505],[77.5856314,12.9556718]]]}},{"type":"Feature","id":"way/323930527","properties":{"@id":"way/323930527","amenity":"cinema","building":"yes","name":"Govardhan "},"geometry":{"type":"Polygon","coordinates":[[[77.5513576,13.0218572],[77.5510867,13.0216168],[77.5511457,13.0215672],[77.5511966,13.0214835],[77.5515024,13.0216691],[77.5514783,13.0217292],[77.5514407,13.0217814],[77.5514005,13.0218259],[77.5513576,13.0218572]]]}},{"type":"Feature","id":"way/325257051","properties":{"@id":"way/325257051","amenity":"cinema","building":"yes","name":"Navarang"},"geometry":{"type":"Polygon","coordinates":[[[77.5526457,12.9979824],[77.552635,12.9978282],[77.5529649,12.9977864],[77.5529729,12.9979824],[77.5526457,12.9979824]]]}},{"type":"Feature","id":"way/325781817","properties":{"@id":"way/325781817","amenity":"cinema","building":"yes","name":"Rex"},"geometry":{"type":"Polygon","coordinates":[[[77.6065843,12.9729275],[77.6063938,12.9725517],[77.6065075,12.9724969],[77.6065277,12.9725367],[77.6066036,12.9725002],[77.6067063,12.9727028],[77.6066432,12.9727331],[77.6067108,12.9728666],[77.6065843,12.9729275]]]}},{"type":"Feature","id":"node/429698071","properties":{"@id":"node/429698071","amenity":"cinema","name":"Kapali Theatre"},"geometry":{"type":"Point","coordinates":[77.575817,12.9779396]}},{"type":"Feature","id":"node/456039716","properties":{"@id":"node/456039716","addr:street":"Sampige Road","amenity":"cinema","name":"Sampige Theatre"},"geometry":{"type":"Point","coordinates":[77.5710734,12.9931208]}},{"type":"Feature","id":"node/456214140","properties":{"@id":"node/456214140","addr:street":"Kempe Gowda Road","amenity":"cinema","name":"Bhoomika Theatre"},"geometry":{"type":"Point","coordinates":[77.5797763,12.973931]}},{"type":"Feature","id":"node/456214142","properties":{"@id":"node/456214142","addr:street":"Kempe Gowda Road","amenity":"cinema","name":"Sagar Cinema"},"geometry":{"type":"Point","coordinates":[77.5786412,12.9744119]}},{"type":"Feature","id":"node/456214147","properties":{"@id":"node/456214147","amenity":"cinema","name":"Kailash Cinema"},"geometry":{"type":"Point","coordinates":[77.5775653,12.9757488]}},{"type":"Feature","id":"node/456214149","properties":{"@id":"node/456214149","addr:street":"Kempe Gowda Road","amenity":"cinema","name":"Kalpana Cinema"},"geometry":{"type":"Point","coordinates":[77.5772001,12.9744407]}},{"type":"Feature","id":"node/456214151","properties":{"@id":"node/456214151","addr:street":"Kempe Gowda Road","amenity":"cinema","name":"Santosh Theatre"},"geometry":{"type":"Point","coordinates":[77.576292,12.9747966]}},{"type":"Feature","id":"node/456214152","properties":{"@id":"node/456214152","amenity":"cinema","name":"Sapna Theatre"},"geometry":{"type":"Point","coordinates":[77.5761539,12.9742868]}},{"type":"Feature","id":"node/456214155","properties":{"@id":"node/456214155","amenity":"cinema","name":"Abhinay Theatre"},"geometry":{"type":"Point","coordinates":[77.5775258,12.9735655]}},{"type":"Feature","id":"node/459471759","properties":{"@id":"node/459471759","addr:street":"Lalbagh Road","amenity":"cinema","name":"Urvashi"},"geometry":{"type":"Point","coordinates":[77.5854825,12.9560393]}},{"type":"Feature","id":"node/493530632","properties":{"@id":"node/493530632","amenity":"cinema","name":"Maheshwari"},"geometry":{"type":"Point","coordinates":[77.598919,12.9233773]}},{"type":"Feature","id":"node/661983057","properties":{"@id":"node/661983057","addr:street":"Cunningham Road","amenity":"cinema","name":"Fun Cinemas"},"geometry":{"type":"Point","coordinates":[77.5944285,12.9880486]}},{"type":"Feature","id":"node/679886797","properties":{"@id":"node/679886797","amenity":"cinema"},"geometry":{"type":"Point","coordinates":[77.5663807,12.9633882]}},{"type":"Feature","id":"node/821379632","properties":{"@id":"node/821379632","amenity":"cinema","name":"Inox Cinemas"},"geometry":{"type":"Point","coordinates":[77.7487956,12.9596691]}},{"type":"Feature","id":"node/844408422","properties":{"@id":"node/844408422","addr:city":"Marathahalli, Bangalore","addr:housenumber":135,"addr:postcode":560037,"addr:street":"Outer Ring Road","amenity":"cinema","name":"Innovative Multiplex","phone":"+91-80-22599999;"},"geometry":{"type":"Point","coordinates":[77.6987012,12.9519369]}},{"type":"Feature","id":"node/953674808","properties":{"@id":"node/953674808","addr:street":"Outer Ring Road","amenity":"cinema","name":"Eeshwari Theatre"},"geometry":{"type":"Point","coordinates":[77.5534075,12.9236391]}},{"type":"Feature","id":"node/1047203498","properties":{"@id":"node/1047203498","amenity":"cinema","name":"Ajantha Theatre"},"geometry":{"type":"Point","coordinates":[77.6144761,12.9828236]}},{"type":"Feature","id":"node/1060580206","properties":{"@id":"node/1060580206","amenity":"cinema","name":"Super talkies"},"geometry":{"type":"Point","coordinates":[77.569887,12.9677686]}},{"type":"Feature","id":"node/1065137172","properties":{"@id":"node/1065137172","addr:housename":"Garuda Mall","addr:street":"Commissariat Road","amenity":"cinema","name":"Inox Cinema"},"geometry":{"type":"Point","coordinates":[77.6098091,12.9698334]}},{"type":"Feature","id":"node/1087693774","properties":{"@id":"node/1087693774","addr:street":"Varthur Road","amenity":"cinema","name":"Tulasi Theatre"},"geometry":{"type":"Point","coordinates":[77.6982039,12.9563303]}},{"type":"Feature","id":"node/1434243876","properties":{"@id":"node/1434243876","amenity":"cinema","name":"Q Cinemas"},"geometry":{"type":"Point","coordinates":[77.7359403,12.986723]}},{"type":"Feature","id":"node/1438147978","properties":{"@id":"node/1438147978","amenity":"cinema","name":"Vinayaka Cinema"},"geometry":{"type":"Point","coordinates":[77.7445092,12.9356843]}},{"type":"Feature","id":"node/1459472858","properties":{"@id":"node/1459472858","amenity":"cinema","name":"PVR Cinemas"},"geometry":{"type":"Point","coordinates":[77.6116748,12.9346877]}},{"type":"Feature","id":"node/1463547493","properties":{"@id":"node/1463547493","amenity":"cinema","name":"Big Cinemas"},"geometry":{"type":"Point","coordinates":[77.5177929,12.9357964]}},{"type":"Feature","id":"node/1463592177","properties":{"@id":"node/1463592177","amenity":"cinema","name":"Vaishnavi"},"geometry":{"type":"Point","coordinates":[77.5442237,12.903508]}},{"type":"Feature","id":"node/1463771768","properties":{"@id":"node/1463771768","amenity":"cinema","name":"Inox - Bangalore Central Mall"},"geometry":{"type":"Point","coordinates":[77.592424,12.9162428]}},{"type":"Feature","id":"node/1467143629","properties":{"@id":"node/1467143629","amenity":"cinema","name":"Gopalan Cinemas"},"geometry":{"type":"Point","coordinates":[77.5993825,12.9140071]}},{"type":"Feature","id":"node/1471781694","properties":{"@id":"node/1471781694","amenity":"cinema","name":"Rupe Theatre"},"geometry":{"type":"Point","coordinates":[77.3954139,13.0983249]}},{"type":"Feature","id":"node/1471781741","properties":{"@id":"node/1471781741","amenity":"cinema","name":"Shantala Theatre"},"geometry":{"type":"Point","coordinates":[77.3954568,13.0986593]}},{"type":"Feature","id":"node/1473999152","properties":{"@id":"node/1473999152","amenity":"cinema","disused":"yes","name":"Opera Theatre"},"geometry":{"type":"Point","coordinates":[77.6074225,12.9725285]}},{"type":"Feature","id":"node/1474863994","properties":{"@id":"node/1474863994","amenity":"cinema","name":"Mukunda Theatre"},"geometry":{"type":"Point","coordinates":[77.6358178,13.0032065]}},{"type":"Feature","id":"node/1538062303","properties":{"@id":"node/1538062303","amenity":"cinema","name":"Vijaylakshmi Theater"},"geometry":{"type":"Point","coordinates":[77.7018495,12.9934306]}},{"type":"Feature","id":"node/1691980738","properties":{"@id":"node/1691980738","amenity":"cinema","name":"Cinemax","source":"Survey"},"geometry":{"type":"Point","coordinates":[77.6753554,12.9263148]}},{"type":"Feature","id":"node/1794163355","properties":{"@id":"node/1794163355","amenity":"cinema","name":"Mohan Cinema"},"geometry":{"type":"Point","coordinates":[77.5036725,12.9986487]}},{"type":"Feature","id":"node/1809856714","properties":{"@id":"node/1809856714","amenity":"cinema","name":"Fame Shankar Nag"},"geometry":{"type":"Point","coordinates":[77.6095784,12.9744138]}},{"type":"Feature","id":"node/1820438588","properties":{"@id":"node/1820438588","amenity":"cinema","name":"Pramod"},"geometry":{"type":"Point","coordinates":[77.5517301,12.9738144]}},{"type":"Feature","id":"node/1837948054","properties":{"@id":"node/1837948054","amenity":"cinema","name":"Lavanya Theatre"},"geometry":{"type":"Point","coordinates":[77.614976,12.9847461]}},{"type":"Feature","id":"node/2014239436","properties":{"@id":"node/2014239436","amenity":"cinema","name":"Menaka Theatre"},"geometry":{"type":"Point","coordinates":[77.5793828,12.9732165]}},{"type":"Feature","id":"node/2016154122","properties":{"@id":"node/2016154122","amenity":"cinema","name":"Vijaya Laxmi Theatre"},"geometry":{"type":"Point","coordinates":[77.5744305,12.9703694]}},{"type":"Feature","id":"node/2097554903","properties":{"@id":"node/2097554903","addr:street":"Subedar chatram road, Bangalore","amenity":"cinema","designation":"Theatre","name":"Movieland theatre"},"geometry":{"type":"Point","coordinates":[77.5755924,12.9788222]}},{"type":"Feature","id":"node/2127406148","properties":{"@id":"node/2127406148","amenity":"cinema","name":"Vaibhavi"},"geometry":{"type":"Point","coordinates":[77.5440956,12.9036309]}},{"type":"Feature","id":"node/2322728638","properties":{"@id":"node/2322728638","amenity":"cinema","name":"Cinepolis","website":"http://www.cinepolisindia.com/"},"geometry":{"type":"Point","coordinates":[77.5952263,12.8755826]}},{"type":"Feature","id":"node/2481972739","properties":{"@id":"node/2481972739","addr:city":"Bangalore","addr:housename":"Gopalan Grand Mall, Nagarvaraplaya","addr:street":"Swamy Vivekananda Road (Old Madras Road)","amenity":"cinema","name":"Gopalan Cinemas","phone":"+91 80 25242424","website":"http://www.gopalancinemas.com"},"geometry":{"type":"Point","coordinates":[77.6641088,12.9934178]}},{"type":"Feature","id":"node/2489017325","properties":{"@id":"node/2489017325","addr:city":"Bangalore","addr:housename":"3rd Floor, Orion Mall","addr:street":"Dr. Rajkumar Road","amenity":"cinema","name":"Inox Cinemas"},"geometry":{"type":"Point","coordinates":[77.555373,13.0106061]}},{"type":"Feature","id":"node/2623606892","properties":{"@id":"node/2623606892","amenity":"cinema","name":"Kamakya Theatre"},"geometry":{"type":"Point","coordinates":[77.5533301,12.9233245]}},{"type":"Feature","id":"node/2908625171","properties":{"@id":"node/2908625171","amenity":"cinema","name":"Galaxy Paradise"},"geometry":{"type":"Point","coordinates":[77.62642,12.8914338]}},{"type":"Feature","id":"node/3003173104","properties":{"@id":"node/3003173104","amenity":"cinema","name":"Inox"},"geometry":{"type":"Point","coordinates":[77.5913715,12.9290557]}},{"type":"Feature","id":"node/3122059772","properties":{"@id":"node/3122059772","addr:city":"Mathikere","addr:postcode":560054,"amenity":"cinema","name":"Lakshmi Tent"},"geometry":{"type":"Point","coordinates":[77.5633839,13.0356828]}},{"type":"Feature","id":"node/3305850522","properties":{"@id":"node/3305850522","amenity":"cinema","name":"Prasanna"},"geometry":{"type":"Point","coordinates":[77.5520866,12.974124]}}]}